NORAD_CAT_ID,OBJECT_NAME,OBJECT_TYPE,EPOCH,MEAN_MOTION,ECCENTRICITY,INCLINATION,RA_OF_ASC_NODE,ARG_OF_PERICENTER,MEAN_ANOMALY,BSTAR,MEAN_MOTION_DOT,MEAN_MOTION_DDOT,TLE_LINE0,TLE_LINE1,TLE_LINE2,SEMIMAJOR_AXIS,PERIOD,APOGEE,PERIGEE,DECAYED
52345.0,STARLINK-3852,PAYLOAD,2023-07-07 16:16:41,15.08854531,7.32e-05,53.2158,260.6087,67.1786,292.9283,0.00026772,3.977e-05,0.0,0 STARLINK-3852,1 52345U 22045Q   23188.67826313  .00003977  00000-0  26772-3 0  9993,2 52345  53.2158 260.6087 0000732  67.1786 292.9283 15.08854531 68426,6917.836,95.437,540.207,539.195,0.0
52345.0,STARLINK-3852,PAYLOAD,2023-07-08 08:10:33,15.08844883,0.0001338,53.2162,257.6349,129.7115,230.3995,7.63e-05,9.27e-06,0.0,0 STARLINK-3852,1 52345U 22045Q   23189.34066565  .00000927  00000-0  76300-4 0  9998,2 52345  53.2162 257.6349 0001338 129.7115 230.3995 15.08844883 68528,6917.865,95.437,540.656,538.805,0.0
52345.0,STARLINK-3852,PAYLOAD,2023-07-09 04:50:34,15.08831273,7.79e-05,53.2165,253.769,74.1489,285.9589,-8.3175e-05,-1.611e-05,0.0,0 STARLINK-3852,1 52345U 22045Q   23190.20179332 -.00001611  00000-0 -83175-4 0  9993,2 52345  53.2165 253.7690 0000779  74.1489 285.9589 15.08831273 68650,6917.907,95.438,540.311,539.233,0.0
52345.0,STARLINK-3852,PAYLOAD,2023-07-09 15:58:16,15.08855247,0.0001061,53.2171,251.6882,132.9211,227.187,-0.00029191,-4.932e-05,0.0,0 STARLINK-3852,1 52345U 22045Q   23190.66546726 -.00004932  00000-0 -29191-3 0  9994,2 52345  53.2171 251.6882 0001061 132.9211 227.1870 15.08855247 68724,6917.834,95.437,540.433,538.965,0.0
52345.0,STARLINK-3852,PAYLOAD,2023-07-09 20:44:26,15.08840886,7.86e-05,53.2169,250.7956,64.1813,295.9261,-1.1401e-05,-4.69e-06,0.0,0 STARLINK-3852,1 52345U 22045Q   23190.86419187 -.00000469  00000-0 -11401-4 0  9993,2 52345  53.2169 250.7956 0000786  64.1813 295.9261 15.08840886 68753,6917.878,95.437,540.286,539.199,0.0
52345.0,STARLINK-3852,PAYLOAD,2023-07-11 15:39:51,15.08839196,9.39e-05,53.2161,242.7659,70.5424,289.5669,0.00014255,1.982e-05,0.0,0 STARLINK-3852,1 52345U 22045Q   23192.65267599  .00001982  00000-0  14255-3 0  9998,2 52345  53.2161 242.7659 0000939  70.5424 289.5669 15.08839196 69029,6917.883,95.438,540.397,539.098,0.0
52345.0,STARLINK-3852,PAYLOAD,2023-07-13 10:35:15,15.08840084,7.44e-05,53.2153,234.7353,83.9746,276.1331,6.7399e-05,7.85e-06,0.0,0 STARLINK-3852,1 52345U 22045Q   23194.44115404  .00000785  00000-0  67399-4 0  9992,2 52345  53.2153 234.7353 0000744  83.9746 276.1331 15.08840084 69296,6917.88,95.438,540.26,539.23,0.0
52345.0,STARLINK-3852,PAYLOAD,2023-07-14 13:36:49,15.08836865,6.27e-05,53.216,229.683,77.6035,282.5028,0.00022885,3.356e-05,0.0,0 STARLINK-3852,1 52345U 22045Q   23195.56723501  .00003356  00000-0  22885-3 0  9996,2 52345  53.2160 229.6830 0000627  77.6035 282.5028 15.08836865 69463,6917.89,95.438,540.189,539.321,0.0
52345.0,STARLINK-3852,PAYLOAD,2023-07-16 02:10:41,15.08833752,9.35e-05,53.2155,222.8426,80.9492,279.1606,-1.0273e-05,-4.51e-06,0.0,0 STARLINK-3852,1 52345U 22045Q   23197.09076051 -.00000451  00000-0 -10273-4 0  9991,2 52345  53.2155 222.8426 0000935  80.9492 279.1606 15.08833752 69690,6917.899,95.438,540.411,539.118,0.0
52345.0,STARLINK-3852,PAYLOAD,2023-07-17 17:55:20,15.0883769,8.27e-05,53.2162,215.4087,79.5253,280.5833,1.2701e-05,-8.6e-07,0.0,0 STARLINK-3852,1 52345U 22045Q   23198.74676240 -.00000086  00000-0  12701-4 0  9991,2 52345  53.2162 215.4087 0000827  79.5253 280.5833 15.08837690 69949,6917.887,95.438,540.325,539.18,0.0
52345.0,STARLINK-3852,PAYLOAD,2023-07-19 00:07:40,15.08837448,8.25e-05,53.2159,209.7587,73.1702,286.938,8.1953e-05,1.017e-05,0.0,0 STARLINK-3852,1 52345U 22045Q   23200.00532436  .00001017  00000-0  81953-4 0  9991,2 52345  53.2159 209.7587 0000825  73.1702 286.9380 15.08837448 70134,6917.888,95.438,540.324,539.182,0.0
52345.0,STARLINK-3852,PAYLOAD,2023-07-20 23:49:14,15.08840965,8.59e-05,53.2159,200.8372,77.7118,282.397,6.5122e-05,7.49e-06,0.0,0 STARLINK-3852,1 52345U 22045Q   23201.99252331  .00000749  00000-0  65122-4 0  9994,2 52345  53.2159 200.8372 0000859  77.7118 282.3970 15.08840965 70432,6917.877,95.437,540.337,539.148,0.0
52345.0,STARLINK-3852,PAYLOAD,2023-07-24 10:29:17,15.08842189,9.77e-05,53.2161,185.3747,88.7937,271.3167,6.0578e-05,6.77e-06,0.0,0 STARLINK-3852,1 52345U 22045Q   23205.43700326  .00000677  00000-0  60578-4 0  9999,2 52345  53.2161 185.3747 0000977  88.7937 271.3167 15.08842189 70953,6917.874,95.437,540.415,539.063,0.0
52345.0,STARLINK-3852,PAYLOAD,2023-07-25 10:20:04,15.08836932,0.000101,53.2161,180.9153,81.6864,278.4243,7.3543e-05,8.83e-06,0.0,0 STARLINK-3852,1 52345U 22045Q   23206.43060893  .00000883  00000-0  73543-4 0  9993,2 52345  53.2161 180.9153 0001010  81.6864 278.4243 15.08836932 71105,6917.89,95.438,540.453,539.056,0.0
52345.0,STARLINK-3852,PAYLOAD,2023-07-26 08:35:28,15.08840462,0.0002238,53.2157,176.7546,60.5848,299.5367,6.9783e-05,8.22e-06,0.0,0 STARLINK-3852,1 52345U 22045Q   23207.35797412  .00000822  00000-0  69783-4 0  9993,2 52345  53.2157 176.7546 0002238  60.5848 299.5367 15.08840462 71249,6917.879,95.438,541.292,538.196,0.0
52345.0,STARLINK-3852,PAYLOAD,2023-07-27 00:29:19,15.0883937,9.03e-05,53.2153,173.7793,82.0158,278.0936,3.4578e-05,2.63e-06,0.0,0 STARLINK-3852,1 52345U 22045Q   23208.02037009  .00000263  00000-0  34578-4 0  9990,2 52345  53.2153 173.7793 0000903  82.0158 278.0936 15.08839370 71347,6917.882,95.438,540.372,539.123,0.0
52345.0,STARLINK-3852,PAYLOAD,2023-07-27 14:47:48,15.0882989,0.0001169,53.2155,171.1035,83.1625,276.95,2.591e-05,1.24e-06,0.0,0 STARLINK-3852,1 52345U 22045Q   23208.61653757  .00000124  00000-0  25910-4 0  9995,2 52345  53.2155 171.1035 0001169  83.1625 276.9500 15.08829890 71436,6917.911,95.438,540.585,538.968,0.0
52345.0,STARLINK-3852,PAYLOAD,2023-07-28 09:52:26,15.08836085,9.37e-05,53.2159,167.5325,89.4646,270.6454,-1.2207e-05,-4.82e-06,0.0,0 STARLINK-3852,1 52345U 22045Q   23209.41141825 -.00000482  00000-0 -12207-4 0  9996,2 52345  53.2159 167.5325 0000937  89.4646 270.6454 15.08836085 71551,6917.892,95.438,540.406,539.109,0.0
52345.0,STARLINK-3852,PAYLOAD,2023-07-28 14:38:35,15.088403,0.0001012,53.2155,166.6424,85.1591,274.9517,7.9463e-06,-1.61e-06,0.0,0 STARLINK-3852,1 52345U 22045Q   23209.61013544 -.00000161  00000-0  79463-5 0  9995,2 52345  53.2155 166.6424 0001012  85.1591 274.9517 15.08840300 71589,6917.879,95.438,540.445,539.044,0.0
52345.0,STARLINK-3852,PAYLOAD,2023-07-29 03:21:40,15.08850898,0.0001065,53.2156,164.2627,80.138,279.9732,7.1512e-05,8.51e-06,0.0,0 STARLINK-3852,1 52345U 22045Q   23210.14004712  .00000851  00000-0  71512-4 0  9993,2 52345  53.2156 164.2627 0001065  80.1380 279.9732 15.08850898 71664,6917.847,95.437,540.449,538.975,0.0
52345.0,STARLINK-3852,PAYLOAD,2023-07-29 14:29:22,15.08839258,0.0001044,53.2167,162.1778,89.2267,270.8844,0.00012449,1.694e-05,0.0,0 STARLINK-3852,1 52345U 22045Q   23210.60373084  .00001694  00000-0  12449-3 0  9994,2 52345  53.2167 162.1778 0001044  89.2267 270.8844 15.08839258 71730,6917.883,95.438,540.47,539.025,0.0
52345.0,STARLINK-3852,PAYLOAD,2023-07-31 03:03:14,15.0884227,0.0001171,53.217,155.3423,83.1434,276.9691,2.458e-05,1.03e-06,0.0,0 STARLINK-3852,1 52345U 22045Q   23212.12725622  .00000103  00000-0  24580-4 0  9996,2 52345  53.2170 155.3423 0001171  83.1434 276.9691 15.08842270 71965,6917.873,95.437,540.549,538.928,0.0
52345.0,STARLINK-3852,PAYLOAD,2023-08-01 01:18:39,15.08837249,0.0001324,53.217,151.1796,86.0469,274.0675,5.2366e-05,5.46e-06,0.0,0 STARLINK-3852,1 52345U 22045Q   23213.05461972  .00000546  00000-0  52366-4 0  9998,2 52345  53.2170 151.1796 0001324  86.0469 274.0675 15.08837249 72100,6917.889,95.438,540.67,538.838,0.0
52345.0,STARLINK-3852,PAYLOAD,2023-08-01 04:29:24,15.08847032,0.0001244,53.2171,150.5857,79.7738,280.3394,2.1653e-05,5.7e-07,0.0,0 STARLINK-3852,1 52345U 22045Q   23213.18709389  .00000057  00000-0  21653-4 0  9991,2 52345  53.2171 150.5857 0001244  79.7738 280.3394 15.08847032 72122,6917.859,95.437,540.584,538.863,0.0
52345.0,STARLINK-3852,PAYLOAD,2023-08-02 02:44:49,15.08836701,0.000122,53.2174,146.4231,101.1423,258.9706,4.3796e-05,4.09e-06,0.0,0 STARLINK-3852,1 52345U 22045Q   23214.11446330  .00000409  00000-0  43796-4 0  9992,2 52345  53.2174 146.4231 0001220 101.1423 258.9706 15.08836701 72264,6917.89,95.438,540.599,538.911,0.0
52345.0,STARLINK-3852,PAYLOAD,2023-08-03 02:35:36,15.08846478,0.000115,53.2172,141.9598,96.6742,263.4381,0.00012743,1.741e-05,0.0,0 STARLINK-3852,1 52345U 22045Q   23215.10805691  .00001741  00000-0  12743-3 0  9998,2 52345  53.2172 141.9598 0001150  96.6742 263.4381 15.08846478 72411,6917.861,95.437,540.521,538.93,0.0
52345.0,STARLINK-3852,PAYLOAD,2023-08-04 02:26:23,15.08836263,8.94e-05,53.2162,137.4954,107.4645,252.6445,6.7866e-05,7.92e-06,0.0,0 STARLINK-3852,1 52345U 22045Q   23216.10166661  .00000792  00000-0  67866-4 0  9998,2 52345  53.2162 137.4954 0000894 107.4645 252.6445 15.08836263 72561,6917.892,95.438,540.375,539.138,0.0
52345.0,STARLINK-3852,PAYLOAD,2023-08-05 00:41:47,15.08848247,9.71e-05,53.2159,133.3337,90.5499,269.5605,9.6568e-05,1.25e-05,0.0,0 STARLINK-3852,1 52345U 22045Q   23217.02902030  .00001250  00000-0  96568-4 0  9999,2 52345  53.2159 133.3337 0000971  90.5499 269.5605 15.08848247 72708,6917.855,95.437,540.392,539.048,0.0
52345.0,STARLINK-3852,PAYLOAD,2023-08-06 03:43:19,15.08859716,0.0001124,53.2153,128.2777,107.4315,252.68,0.0003289,4.953e-05,0.0,0 STARLINK-3852,1 52345U 22045Q   23218.15508930  .00004953  00000-0  32890-3 0  9995,2 52345  53.2153 128.2777 0001124 107.4315 252.6800 15.08859716 72870,6917.82,95.436,540.463,538.908,0.0
52345.0,STARLINK-3852,PAYLOAD,2023-08-06 18:01:49,15.08832031,0.0001859,53.2148,125.6025,91.1358,268.9847,-0.00017108,-3.009e-05,0.0,0 STARLINK-3852,1 52345U 22045Q   23218.75126849 -.00003009  00000-0 -17108-3 0  9994,2 52345  53.2148 125.6025 0001859  91.1358 268.9847 15.08832031 72964,6917.905,95.438,541.056,538.484,0.0
